{
  "type": "FeatureCollection",
  "features": [
    {
      "type": "Feature",
      "properties": {
        "norad_id": 33901,
        "name": "COSMOS 2251 DEB",
        "group": "cosmos-2251-debris",
        "lat": -73.53426687839413,
        "lon": -41.960192526001336,
        "alt_km": 528.0390116493418,
        "timestamp": "2025-12-17T23:38:07.246377+00:00",
        "meta_object_name": "COSMOS 2251 DEB",
        "meta_object_id": "1993-036DE",
        "meta_epoch": "2025-12-17T12:56:17.557440",
        "meta_mean_motion": 15.16460404,
        "meta_eccentricity": 0.00308116,
        "meta_inclination": 73.7748,
        "meta_ra_of_asc_node": 39.1335,
        "meta_arg_of_pericenter": 170.933,
        "meta_mean_anomaly": 189.2427,
        "meta_ephemeris_type": 0,
        "meta_classification_type": "U",
        "meta_norad_cat_id": 33901,
        "meta_element_set_no": 999,
        "meta_rev_at_epoch": 89586,
        "meta_bstar": 0.0021450869,
        "meta_mean_motion_dot": 0.00042466,
        "meta_mean_motion_ddot": 0,
        "tle_line1": "1 33901U 93036DE  25351.53909210  .00042466  00000+0  21451-2 0  9998",
        "tle_line2": "2 33901  73.7748  39.1335 0030811 170.9330 189.2427 15.16460404895864"
      },
      "geometry": {
        "type": "Point",
        "coordinates": [
          -41.960192526001336,
          -73.53426687839413
        ]
      }
    },
    {
      "type": "Feature",
      "properties": {
        "norad_id": 33905,
        "name": "COSMOS 2251 DEB",
        "group": "cosmos-2251-debris",
        "lat": -73.01870542953328,
        "lon": -161.87173349951462,
        "alt_km": 765.5861655277195,
        "timestamp": "2025-12-17T23:38:07.246388+00:00",
        "meta_object_name": "COSMOS 2251 DEB",
        "meta_object_id": "1993-036DJ",
        "meta_epoch": "2025-12-17T14:51:19.891008",
        "meta_mean_motion": 14.35403807,
        "meta_eccentricity": 0.00585607,
        "meta_inclination": 73.8869,
        "meta_ra_of_asc_node": 307.6122,
        "meta_arg_of_pericenter": 196.1284,
        "meta_mean_anomaly": 338.1932,
        "meta_ephemeris_type": 0,
        "meta_classification_type": "U",
        "meta_norad_cat_id": 33905,
        "meta_element_set_no": 999,
        "meta_rev_at_epoch": 87757,
        "meta_bstar": 0.00047306407,
        "meta_mean_motion_dot": 1.358e-05,
        "meta_mean_motion_ddot": 0,
        "tle_line1": "1 33905U 93036DJ  25351.61898022  .00001358  00000+0  47306-3 0  9992",
        "tle_line2": "2 33905  73.8869 307.6122 0058560 196.1284 338.1932 14.35403807877577"
      },
      "geometry": {
        "type": "Point",
        "coordinates": [
          -161.87173349951462,
          -73.01870542953328
        ]
      }
    },
    {
      "type": "Feature",
      "properties": {
        "norad_id": 33906,
        "name": "COSMOS 2251 DEB",
        "group": "cosmos-2251-debris",
        "lat": -17.95407614104284,
        "lon": 136.83095783644018,
        "alt_km": 727.3131674342503,
        "timestamp": "2025-12-17T23:38:07.246397+00:00",
        "meta_object_name": "COSMOS 2251 DEB",
        "meta_object_id": "1993-036DK",
        "meta_epoch": "2025-12-17T08:25:58.563264",
        "meta_mean_motion": 14.57169941,
        "meta_eccentricity": 0.00368112,
        "meta_inclination": 74.0301,
        "meta_ra_of_asc_node": 312.7099,
        "meta_arg_of_pericenter": 341.4661,
        "meta_mean_anomaly": 135.8625,
        "meta_ephemeris_type": 0,
        "meta_classification_type": "U",
        "meta_norad_cat_id": 33906,
        "meta_element_set_no": 999,
        "meta_rev_at_epoch": 88075,
        "meta_bstar": 0.0015367895,
        "meta_mean_motion_dot": 6.977e-05,
        "meta_mean_motion_ddot": 0,
        "tle_line1": "1 33906U 93036DK  25351.35137226  .00006977  00000+0  15368-2 0  9990",
        "tle_line2": "2 33906  74.0301 312.7099 0036811 341.4661 135.8625 14.57169941880758"
      },
      "geometry": {
        "type": "Point",
        "coordinates": [
          136.83095783644018,
          -17.95407614104284
        ]
      }
    },
    {
      "type": "Feature",
      "properties": {
        "norad_id": 33907,
        "name": "COSMOS 2251 DEB",
        "group": "cosmos-2251-debris",
        "lat": 27.22160308003584,
        "lon": 32.574497443200435,
        "alt_km": 735.8719874749622,
        "timestamp": "2025-12-17T23:38:07.246407+00:00",
        "meta_object_name": "COSMOS 2251 DEB",
        "meta_object_id": "1993-036DL",
        "meta_epoch": "2025-12-17T03:39:15.429888",
        "meta_mean_motion": 14.30545392,
        "meta_eccentricity": 0.01119341,
        "meta_inclination": 74.0704,
        "meta_ra_of_asc_node": 25.6378,
        "meta_arg_of_pericenter": 79.7916,
        "meta_mean_anomaly": 343.821,
        "meta_ephemeris_type": 0,
        "meta_classification_type": "U",
        "meta_norad_cat_id": 33907,
        "meta_element_set_no": 999,
        "meta_rev_at_epoch": 86643,
        "meta_bstar": 0.0014165033,
        "meta_mean_motion_dot": 3.932e-05,
        "meta_mean_motion_ddot": 0,
        "tle_line1": "1 33907U 93036DL  25351.15226192  .00003932  00000+0  14165-2 0  9992",
        "tle_line2": "2 33907  74.0704  25.6378 0111934  79.7916 343.8210 14.30545392866439"
      },
      "geometry": {
        "type": "Point",
        "coordinates": [
          32.574497443200435,
          27.22160308003584
        ]
      }
    },
    {
      "type": "Feature",
      "properties": {
        "norad_id": 33908,
        "name": "COSMOS 2251 DEB",
        "group": "cosmos-2251-debris",
        "lat": -15.000481786277646,
        "lon": -167.9979885096232,
        "alt_km": 963.9002326329255,
        "timestamp": "2025-12-17T23:38:07.246417+00:00",
        "meta_object_name": "COSMOS 2251 DEB",
        "meta_object_id": "1993-036DM",
        "meta_epoch": "2025-12-17T13:28:32.916576",
        "meta_mean_motion": 14.0737694,
        "meta_eccentricity": 0.02227138,
        "meta_inclination": 73.8373,
        "meta_ra_of_asc_node": 197.2098,
        "meta_arg_of_pericenter": 219.8346,
        "meta_mean_anomaly": 138.6262,
        "meta_ephemeris_type": 0,
        "meta_classification_type": "U",
        "meta_norad_cat_id": 33908,
        "meta_element_set_no": 999,
        "meta_rev_at_epoch": 85541,
        "meta_bstar": 0.0014896312,
        "meta_mean_motion_dot": 3.114e-05,
        "meta_mean_motion_ddot": 0,
        "tle_line1": "1 33908U 93036DM  25351.56149209  .00003114  00000+0  14896-2 0  9994",
        "tle_line2": "2 33908  73.8373 197.2098 0222713 219.8346 138.6262 14.07376940855414"
      },
      "geometry": {
        "type": "Point",
        "coordinates": [
          -167.9979885096232,
          -15.000481786277646
        ]
      }
    },
    {
      "type": "Feature",
      "properties": {
        "norad_id": 33911,
        "name": "COSMOS 2251 DEB",
        "group": "cosmos-2251-debris",
        "lat": -51.51716048676424,
        "lon": 130.61130934579722,
        "alt_km": 659.7588627173218,
        "timestamp": "2025-12-17T23:38:07.246428+00:00",
        "meta_object_name": "COSMOS 2251 DEB",
        "meta_object_id": "1993-036DQ",
        "meta_epoch": "2025-12-17T12:48:11.698272",
        "meta_mean_motion": 14.74971319,
        "meta_eccentricity": 0.00141461,
        "meta_inclination": 74.0898,
        "meta_ra_of_asc_node": 152.5176,
        "meta_arg_of_pericenter": 89.7358,
        "meta_mean_anomaly": 340.3852,
        "meta_ephemeris_type": 0,
        "meta_classification_type": "U",
        "meta_norad_cat_id": 33911,
        "meta_element_set_no": 999,
        "meta_rev_at_epoch": 88715,
        "meta_bstar": 0.0015897121,
        "meta_mean_motion_dot": 0.0001069,
        "meta_mean_motion_ddot": 0,
        "tle_line1": "1 33911U 93036DQ  25351.53346873  .00010690  00000+0  15897-2 0  9990",
        "tle_line2": "2 33911  74.0898 152.5176 0014146  89.7358 340.3852 14.74971319887158"
      },
      "geometry": {
        "type": "Point",
        "coordinates": [
          130.61130934579722,
          -51.51716048676424
        ]
      }
    },
    {
      "type": "Feature",
      "properties": {
        "norad_id": 33912,
        "name": "COSMOS 2251 DEB",
        "group": "cosmos-2251-debris",
        "lat": 57.760397078106614,
        "lon": -27.153825968520913,
        "alt_km": 719.6826264097517,
        "timestamp": "2025-12-17T23:38:07.246438+00:00",
        "meta_object_name": "COSMOS 2251 DEB",
        "meta_object_id": "1993-036DR",
        "meta_epoch": "2025-12-17T15:08:26.456928",
        "meta_mean_motion": 14.5192161,
        "meta_eccentricity": 0.00114065,
        "meta_inclination": 74.0326,
        "meta_ra_of_asc_node": 180.5113,
        "meta_arg_of_pericenter": 259.3389,
        "meta_mean_anomaly": 169.7908,
        "meta_ephemeris_type": 0,
        "meta_classification_type": "U",
        "meta_norad_cat_id": 33912,
        "meta_element_set_no": 999,
        "meta_rev_at_epoch": 88504,
        "meta_bstar": 0.00054501802,
        "meta_mean_motion_dot": 2.173e-05,
        "meta_mean_motion_ddot": 0,
        "tle_line1": "1 33912U 93036DR  25351.63086177  .00002173  00000+0  54502-3 0  9994",
        "tle_line2": "2 33912  74.0326 180.5113 0011406 259.3389 169.7908 14.51921610885047"
      },
      "geometry": {
        "type": "Point",
        "coordinates": [
          -27.153825968520913,
          57.760397078106614
        ]
      }
    }
  ]
}